start=new Date('2023-01-07T00:00:00.000Z').valueOf();
sats=[{"REF_FRAME":"TEME","PERIAPSIS":"546.488","LAUNCH_DATE":"2021-02-04","PERIOD":"95.593","RA_OF_ASC_NODE":"160.8274","APOAPSIS":"547.984","NORAD_CAT_ID":"47560","TIME_SYSTEM":"UTC","OBJECT_ID":"2021-009N","OBJECT_TYPE":"PAYLOAD","SITE":"AFETR","MEAN_MOTION":"15.06392609","DECAY_DATE":null,"COUNTRY_CODE":"US","REV_AT_EPOCH":"10712","INCLINATION":"53.0551","FILE":"3733945","TLE_LINE1":"1 47560U 21009N   23006.51968298  .00000606  00000-0  59547-4 0  9999","MEAN_MOTION_DDOT":"0.0000000000000","MEAN_MOTION_DOT":"0.00000606","MEAN_ELEMENT_THEORY":"SGP4","ARG_OF_PERICENTER":"89.4602","EPHEMERIS_TYPE":"0","TLE_LINE2":"2 47560  53.0551 160.8274 0001080  89.4602 270.6511 15.06392609107123","RCS_SIZE":"LARGE","BSTAR":"0.00005954700000","SEMIMAJOR_AXIS":"6925.371","OBJECT_NAME":"STARLINK-1959","CENTER_NAME":"EARTH","MEAN_ANOMALY":"270.6511","GP_ID":"222314050","ECCENTRICITY":"0.00010800","ELEMENT_SET_NO":"999","CLASSIFICATION_TYPE":"U","EPOCH":"2023-01-06T12:28:20.609472"},{"BSTAR":"0.00006508700000","SEMIMAJOR_AXIS":"6925.362","OBJECT_NAME":"STARLINK-1960","CENTER_NAME":"EARTH","MEAN_ANOMALY":"263.5780","GP_ID":"222342528","ECCENTRICITY":"0.00014590","CLASSIFICATION_TYPE":"U","ELEMENT_SET_NO":"999","EPOCH":"2023-01-06T21:44:21.395616","PERIAPSIS":"546.216","REF_FRAME":"TEME","RA_OF_ASC_NODE":"179.1143","LAUNCH_DATE":"2021-02-04","PERIOD":"95.592","NORAD_CAT_ID":"47561","APOAPSIS":"548.237","TIME_SYSTEM":"UTC","OBJECT_ID":"2021-009P","DECAY_DATE":null,"SITE":"AFETR","OBJECT_TYPE":"PAYLOAD","MEAN_MOTION":"15.06395702","COUNTRY_CODE":"US","REV_AT_EPOCH":"10629","FILE":"3734255","INCLINATION":"53.0539","MEAN_MOTION_DOT":"0.00000688","TLE_LINE1":"1 47561U 21009P   23006.90580319  .00000688  00000-0  65087-4 0  9993","MEAN_MOTION_DDOT":"0.0000000000000","MEAN_ELEMENT_THEORY":"SGP4","ARG_OF_PERICENTER":"96.5375","TLE_LINE2":"2 47561  53.0539 179.1143 0001459  96.5375 263.5780 15.06395702106297","EPHEMERIS_TYPE":"0","RCS_SIZE":"LARGE"},{"EPHEMERIS_TYPE":"0","TLE_LINE2":"2 47562  53.0528 179.3510 0001299 108.3073 251.8057 15.06400072106288","RCS_SIZE":"LARGE","MEAN_ELEMENT_THEORY":"SGP4","ARG_OF_PERICENTER":"108.3073","MEAN_MOTION_DDOT":"0.0000000000000","TLE_LINE1":"1 47562U 21009Q   23006.85419326  .00000402  00000-0  45848-4 0  9994","MEAN_MOTION_DOT":"0.00000402","COUNTRY_CODE":"US","REV_AT_EPOCH":"10628","INCLINATION":"53.0528","FILE":"3734255","OBJECT_ID":"2021-009Q","OBJECT_TYPE":"PAYLOAD","SITE":"AFETR","MEAN_MOTION":"15.06400072","DECAY_DATE":null,"APOAPSIS":"548.113","NORAD_CAT_ID":"47562","TIME_SYSTEM":"UTC","REF_FRAME":"TEME","PERIAPSIS":"546.314","LAUNCH_DATE":"2021-02-04","PERIOD":"95.592","RA_OF_ASC_NODE":"179.3510","EPOCH":"2023-01-06T20:30:02.297664","ECCENTRICITY":"0.00012990","ELEMENT_SET_NO":"999","CLASSIFICATION_TYPE":"U","MEAN_ANOMALY":"251.8057","GP_ID":"222343278","CENTER_NAME":"EARTH","SEMIMAJOR_AXIS":"6925.348","OBJECT_NAME":"STARLINK-1961","BSTAR":"0.00004584800000"},{"EPOCH":"2023-01-06T21:01:53.955552","CLASSIFICATION_TYPE":"U","ELEMENT_SET_NO":"999","ECCENTRICITY":"0.00013680","GP_ID":"222341527","MEAN_ANOMALY":"280.7323","CENTER_NAME":"EARTH","OBJECT_NAME":"STARLINK-1962","SEMIMAJOR_AXIS":"6925.376","BSTAR":"0.00004486000000","RCS_SIZE":"LARGE","TLE_LINE2":"2 47563  53.0534 179.2546 0001368  79.3820 280.7323 15.06391091106285","EPHEMERIS_TYPE":"0","ARG_OF_PERICENTER":"79.3820","MEAN_ELEMENT_THEORY":"SGP4","MEAN_MOTION_DOT":"0.00000387","TLE_LINE1":"1 47563U 21009R   23006.87631893  .00000387  00000-0  44860-4 0  9997","MEAN_MOTION_DDOT":"0.0000000000000","FILE":"3734255","INCLINATION":"53.0534","COUNTRY_CODE":"US","REV_AT_EPOCH":"10628","DECAY_DATE":null,"OBJECT_TYPE":"PAYLOAD","SITE":"AFETR","MEAN_MOTION":"15.06391091","OBJECT_ID":"2021-009R","TIME_SYSTEM":"UTC","NORAD_CAT_ID":"47563","APOAPSIS":"548.188","RA_OF_ASC_NODE":"179.2546","PERIOD":"95.593","LAUNCH_DATE":"2021-02-04","PERIAPSIS":"546.293","REF_FRAME":"TEME"},{"DECAY_DATE":null,"OBJECT_TYPE":"PAYLOAD","SITE":"AFETR","MEAN_MOTION":"15.06393299","OBJECT_ID":"2021-009S","FILE":"3734255","INCLINATION":"53.0543","COUNTRY_CODE":"US","REV_AT_EPOCH":"10635","RA_OF_ASC_NODE":"171.3381","LAUNCH_DATE":"2021-02-04","PERIOD":"95.593","PERIAPSIS":"546.361","REF_FRAME":"TEME","TIME_SYSTEM":"UTC","NORAD_CAT_ID":"47564","APOAPSIS":"548.107","ARG_OF_PERICENTER":"90.0330","MEAN_ELEMENT_THEORY":"SGP4","RCS_SIZE":"LARGE","TLE_LINE2":"2 47564  53.0543 171.3381 0001261  90.0330 270.0804 15.06393299106350","EPHEMERIS_TYPE":"0","MEAN_MOTION_DOT":"0.00000280","TLE_LINE1":"1 47564U 21009S   23006.41280668  .00000280  00000-0  37674-4 0  9995","MEAN_MOTION_DDOT":"0.0000000000000","OBJECT_NAME":"STARLINK-1963","SEMIMAJOR_AXIS":"6925.369","CENTER_NAME":"EARTH","BSTAR":"0.00003767400000","CLASSIFICATION_TYPE":"U","ELEMENT_SET_NO":"999","ECCENTRICITY":"0.00012610","EPOCH":"2023-01-06T09:54:26.497152","GP_ID":"222341777","MEAN_ANOMALY":"270.0804"},{"TLE_LINE1":"1 47565U 21009T   23006.47546816 -.00000621  00000-0 -22782-4 0  9997","MEAN_MOTION_DDOT":"0.0000000000000","MEAN_MOTION_DOT":"-0.00000621","RCS_SIZE":"LARGE","EPHEMERIS_TYPE":"0","TLE_LINE2":"2 47565  53.0533 171.0478 0001234  88.9830 271.1300 15.06395559106360","ARG_OF_PERICENTER":"88.9830","MEAN_ELEMENT_THEORY":"SGP4","TIME_SYSTEM":"UTC","APOAPSIS":"548.082","NORAD_CAT_ID":"47565","LAUNCH_DATE":"2021-02-04","PERIOD":"95.592","RA_OF_ASC_NODE":"171.0478","REF_FRAME":"TEME","PERIAPSIS":"546.373","INCLINATION":"53.0533","FILE":"3734255","COUNTRY_CODE":"US","REV_AT_EPOCH":"10636","MEAN_MOTION":"15.06395559","SITE":"AFETR","OBJECT_TYPE":"PAYLOAD","DECAY_DATE":null,"OBJECT_ID":"2021-009T","GP_ID":"222343028","MEAN_ANOMALY":"271.1300","EPOCH":"2023-01-06T11:24:40.449024","ELEMENT_SET_NO":"999","CLASSIFICATION_TYPE":"U","ECCENTRICITY":"0.00012340","BSTAR":"-0.00002278200000","CENTER_NAME":"EARTH","OBJECT_NAME":"STARLINK-1964","SEMIMAJOR_AXIS":"6925.362"},{"BSTAR":"-0.00002139400000","CENTER_NAME":"EARTH","SEMIMAJOR_AXIS":"6925.382","OBJECT_NAME":"STARLINK-1965","MEAN_ANOMALY":"265.2293","GP_ID":"222342779","EPOCH":"2023-01-06T09:39:50.740704","ECCENTRICITY":"0.00012680","ELEMENT_SET_NO":"999","CLASSIFICATION_TYPE":"U","APOAPSIS":"548.125","NORAD_CAT_ID":"47566","TIME_SYSTEM":"UTC","REF_FRAME":"TEME","PERIAPSIS":"546.368","LAUNCH_DATE":"2021-02-04","PERIOD":"95.593","RA_OF_ASC_NODE":"161.3817","REV_AT_EPOCH":"10649","COUNTRY_CODE":"US","INCLINATION":"53.0532","FILE":"3734255","OBJECT_ID":"2021-009U","SITE":"AFETR","MEAN_MOTION":"15.06389207","OBJECT_TYPE":"PAYLOAD","DECAY_DATE":null,"MEAN_MOTION_DDOT":"0.0000000000000","TLE_LINE1":"1 47566U 21009U   23006.40267061 -.00000600  00000-0 -21394-4 0  9998","MEAN_MOTION_DOT":"-0.00000600","EPHEMERIS_TYPE":"0","TLE_LINE2":"2 47566  53.0532 161.3817 0001268  94.8841 265.2293 15.06389207106496","RCS_SIZE":"LARGE","MEAN_ELEMENT_THEORY":"SGP4","ARG_OF_PERICENTER":"94.8841"},{"INCLINATION":"53.0537","FILE":"3734255","COUNTRY_CODE":"US","REV_AT_EPOCH":"10596","MEAN_MOTION":"15.06396316","SITE":"AFETR","OBJECT_TYPE":"PAYLOAD","DECAY_DATE":null,"OBJECT_ID":"2021-009V","TIME_SYSTEM":"UTC","APOAPSIS":"548.220","NORAD_CAT_ID":"47567","LAUNCH_DATE":"2021-02-04","PERIOD":"95.592","RA_OF_ASC_NODE":"200.3212","REF_FRAME":"TEME","PERIAPSIS":"546.230","RCS_SIZE":"LARGE","EPHEMERIS_TYPE":"0","TLE_LINE2":"2 47567  53.0537 200.3212 0001437 101.0065 259.1086 15.06396316105964","ARG_OF_PERICENTER":"101.0065","MEAN_ELEMENT_THEORY":"SGP4","TLE_LINE1":"1 47567U 21009V   23006.63858279 -.00001618  00000-0 -89785-4 0  9999","MEAN_MOTION_DDOT":"0.0000000000000","MEAN_MOTION_DOT":"-0.00001618","CENTER_NAME":"EARTH","OBJECT_NAME":"STARLINK-1966","SEMIMAJOR_AXIS":"6925.360","BSTAR":"-0.00008978500000","EPOCH":"2023-01-06T15:19:33.553056","ELEMENT_SET_NO":"999","CLASSIFICATION_TYPE":"U","ECCENTRICITY":"0.00014370","GP_ID":"222342027","MEAN_ANOMALY":"259.1086"},{"GP_ID":"222342277","MEAN_ANOMALY":"290.2155","ELEMENT_SET_NO":"999","CLASSIFICATION_TYPE":"U","ECCENTRICITY":"0.00013930","EPOCH":"2023-01-06T22:18:50.872608","BSTAR":"0.00004975400000","OBJECT_NAME":"STARLINK-1967","SEMIMAJOR_AXIS":"6925.340","CENTER_NAME":"EARTH","MEAN_MOTION_DDOT":"0.0000000000000","TLE_LINE1":"1 47568U 21009W   23006.92975547  .00000460  00000-0  49754-4 0  9994","MEAN_MOTION_DOT":"0.00000460","ARG_OF_PERICENTER":"69.8984","MEAN_ELEMENT_THEORY":"SGP4","RCS_SIZE":"LARGE","EPHEMERIS_TYPE":"0","TLE_LINE2":"2 47568  53.0525 199.0158 0001393  69.8984 290.2155 15.06402895106017","PERIOD":"95.592","LAUNCH_DATE":"2021-02-04","RA_OF_ASC_NODE":"199.0158","REF_FRAME":"TEME","PERIAPSIS":"546.240","TIME_SYSTEM":"UTC","APOAPSIS":"548.169","NORAD_CAT_ID":"47568","MEAN_MOTION":"15.06402895","SITE":"AFETR","OBJECT_TYPE":"PAYLOAD","DECAY_DATE":null,"OBJECT_ID":"2021-009W","INCLINATION":"53.0525","FILE":"3734255","COUNTRY_CODE":"US","REV_AT_EPOCH":"10601"},{"EPOCH":"2023-01-06T09:23:54.555360","ECCENTRICITY":"0.00010970","CLASSIFICATION_TYPE":"U","ELEMENT_SET_NO":"999","MEAN_ANOMALY":"265.7267","GP_ID":"222342529","CENTER_NAME":"EARTH","SEMIMAJOR_AXIS":"6925.358","OBJECT_NAME":"STARLINK-1969","BSTAR":"-0.00005646600000","TLE_LINE2":"2 47570  53.0556 161.4220 0001097  94.3847 265.7267 15.06396883106491","EPHEMERIS_TYPE":"0","RCS_SIZE":"LARGE","MEAN_ELEMENT_THEORY":"SGP4","ARG_OF_PERICENTER":"94.3847","MEAN_MOTION_DOT":"-0.00001122","TLE_LINE1":"1 47570U 21009Y   23006.39160365 -.00001122  00000-0 -56466-4 0  9998","MEAN_MOTION_DDOT":"0.0000000000000","REV_AT_EPOCH":"10649","COUNTRY_CODE":"US","FILE":"3734255","INCLINATION":"53.0556","OBJECT_ID":"2021-009Y","DECAY_DATE":null,"OBJECT_TYPE":"PAYLOAD","SITE":"AFETR","MEAN_MOTION":"15.06396883","NORAD_CAT_ID":"47570","APOAPSIS":"547.983","TIME_SYSTEM":"UTC","PERIAPSIS":"546.463","REF_FRAME":"TEME","RA_OF_ASC_NODE":"161.4220","PERIOD":"95.592","LAUNCH_DATE":"2021-02-04"}];
